{
  "type": "FeatureCollection",
  "sourceAttributions": [
    {
      "sourceId": "openstreetmap",
      "license": "Open Database License (ODbL) 1.0",
      "licenseUrl": "https://opendatacommons.org/licenses/odbl/1-0/"
    },
    {
      "sourceId": "wikidata",
      "license": "Creative Commons CC0 1.0 Universal",
      "licenseUrl": "https://creativecommons.org/publicdomain/zero/1.0/"
    },
    {
      "sourceId": "tokyo-welfare-nursery",
      "license": "Creative Commons Attribution 4.0 International",
      "licenseUrl": "https://creativecommons.org/licenses/by/4.0/"
    },
    {
      "sourceId": "chiyoda-kindergarten",
      "license": "Creative Commons Attribution 4.0 International",
      "licenseUrl": "https://creativecommons.org/licenses/by/4.0/"
    },
    {
      "sourceId": "chiyoda-city-town-geojson",
      "license": "Creative Commons Attribution-ShareAlike 4.0 International",
      "licenseUrl": "https://creativecommons.org/licenses/by-sa/4.0/"
    },
    {
      "sourceId": "hitachi-kazaguruma",
      "license": "Creative Commons Attribution 4.0 International",
      "licenseUrl": "https://creativecommons.org/licenses/by/4.0/"
    }
  ],
  "features": [
    {
      "type": "Feature",
      "geometry": {
        "type": "Point",
        "coordinates": [
          139.7553048,
          35.6977902
        ]
      },
      "properties": {
        "id": "019fa880-5cd4-7122-bc68-e8a327846042",
        "name": "千代田区神保町出張所・区民館",
        "categoryIds": [
          "public-office"
        ],
        "tags": [],
        "town": null
      }
    },
    {
      "type": "Feature",
      "geometry": {
        "type": "Point",
        "coordinates": [
          139.7426631,
          35.6811899
        ]
      },
      "properties": {
        "id": "019fa880-5cd4-7178-bfbc-d7b174721469",
        "name": "伝統芸能情報センター",
        "categoryIds": [
          "library"
        ],
        "tags": [],
        "town": null
      }
    },
    {
      "type": "Feature",
      "geometry": {
        "type": "Point",
        "coordinates": [
          139.7463841,
          35.6991024
        ]
      },
      "properties": {
        "id": "019fa880-5cd4-71bb-bab2-80c97e636918",
        "name": "千代田区富士見出張所・区民館",
        "categoryIds": [
          "public-office"
        ],
        "tags": [],
        "town": null
      }
    },
    {
      "type": "Feature",
      "geometry": {
        "type": "Point",
        "coordinates": [
          139.760849,
          35.700506
        ]
      },
      "properties": {
        "id": "019fa880-5cd4-729d-8095-deb5f1a4597f",
        "name": "えみふる（障害者福祉センター）",
        "categoryIds": [
          "disability-support"
        ],
        "tags": [
          "kazaguruma.home-shortcut"
        ],
        "town": null
      }
    },
    {
      "type": "Feature",
      "geometry": {
        "type": "Point",
        "coordinates": [
          139.774931,
          35.6972781
        ]
      },
      "properties": {
        "id": "019fa880-5cd4-75da-ae8b-ec6d104eb49b",
        "name": "千代田区役所和泉橋出張所",
        "categoryIds": [
          "public-office"
        ],
        "tags": [],
        "town": null
      }
    },
    {
      "type": "Feature",
      "geometry": {
        "type": "Point",
        "coordinates": [
          139.7535624,
          35.6941626
        ]
      },
      "properties": {
        "id": "019fa880-5cd4-78e1-aa8b-c4ce83a065bc",
        "name": "千代田区役所",
        "categoryIds": [
          "public-office"
        ],
        "tags": [
          "kazaguruma.home-shortcut"
        ],
        "town": null
      }
    },
    {
      "type": "Feature",
      "geometry": {
        "type": "Point",
        "coordinates": [
          139.7443356,
          35.6786257
        ]
      },
      "properties": {
        "id": "019fa880-5cd4-7984-988b-923b526a8d9a",
        "name": "国立国会図書館・東京本館",
        "categoryIds": [
          "library"
        ],
        "tags": [],
        "town": null
      }
    },
    {
      "type": "Feature",
      "geometry": {
        "type": "Point",
        "coordinates": [
          139.7681384,
          35.6927468
        ]
      },
      "properties": {
        "id": "019fa880-5cd4-7b4b-86c4-92d4d1fbe213",
        "name": "千代田区神田公園出張所・区民館",
        "categoryIds": [
          "public-office"
        ],
        "tags": [],
        "town": null
      }
    },
    {
      "type": "Feature",
      "geometry": {
        "type": "Point",
        "coordinates": [
          139.7706485,
          35.6976015
        ]
      },
      "properties": {
        "id": "019fa880-5cd4-7ba6-a5af-481b9cb95516",
        "name": "千代田区役所 万世橋出張所",
        "categoryIds": [
          "public-office"
        ],
        "tags": [],
        "town": null
      }
    },
    {
      "type": "Feature",
      "geometry": {
        "type": "Point",
        "coordinates": [
          139.7573,
          35.691019
        ]
      },
      "properties": {
        "id": "019fa880-5cd4-7d3c-a9e1-f01c12ebf008",
        "name": "障害者よろず相談Light",
        "categoryIds": [
          "disability-support"
        ],
        "tags": [
          "kazaguruma.home-shortcut"
        ],
        "town": null
      }
    },
    {
      "type": "Feature",
      "geometry": {
        "type": "Point",
        "coordinates": [
          139.749567,
          35.70038
        ]
      },
      "properties": {
        "id": "019fa880-5cd5-701b-90d2-e3073a1c337b",
        "name": "東京しごとセンター",
        "categoryIds": [
          "social-welfare"
        ],
        "tags": [],
        "town": null
      }
    },
    {
      "type": "Feature",
      "geometry": {
        "type": "Point",
        "coordinates": [
          139.7445864,
          35.6950676
        ]
      },
      "properties": {
        "id": "019fa880-5cd5-7031-bc8e-250d0074827b",
        "name": "シャルトル聖パウロ修道女会",
        "categoryIds": [
          "christian-church"
        ],
        "tags": [],
        "town": null
      }
    },
    {
      "type": "Feature",
      "geometry": {
        "type": "Point",
        "coordinates": [
          139.778795,
          35.699229
        ]
      },
      "properties": {
        "id": "019fa880-5cd5-713a-8135-779f14050ab2",
        "name": "千代田区立ちよだパークサイドプラザ区民図書室",
        "categoryIds": [
          "library"
        ],
        "tags": [],
        "town": null
      }
    },
    {
      "type": "Feature",
      "geometry": {
        "type": "Point",
        "coordinates": [
          139.75973,
          35.6990086
        ]
      },
      "properties": {
        "id": "019fa880-5cd5-7154-8bff-19d82e0fc560",
        "name": "明治大学米沢嘉博記念図書館",
        "categoryIds": [
          "library"
        ],
        "tags": [],
        "town": null
      }
    },
    {
      "type": "Feature",
      "geometry": {
        "type": "Point",
        "coordinates": [
          139.7469234,
          35.6900817
        ]
      },
      "properties": {
        "id": "019fa880-5cd5-71c8-ba28-7d86e104de84",
        "name": "千鳥ヶ淵戦没者墓苑",
        "categoryIds": [
          "park"
        ],
        "tags": [],
        "town": null
      }
    },
    {
      "type": "Feature",
      "geometry": {
        "type": "Point",
        "coordinates": [
          139.7698588,
          35.7012028
        ]
      },
      "properties": {
        "id": "019fa880-5cd5-7241-a976-801eef6324a9",
        "name": "昌平童夢館",
        "categoryIds": [
          "social-welfare"
        ],
        "tags": [
          "kazaguruma.home-shortcut"
        ],
        "town": null
      }
    },
    {
      "type": "Feature",
      "geometry": {
        "type": "Point",
        "coordinates": [
          139.7312545,
          35.6851483
        ]
      },
      "properties": {
        "id": "019fa880-5cd5-7285-88ba-ab05a68eb601",
        "name": "聖イグナチオ教会",
        "categoryIds": [
          "christian-church"
        ],
        "tags": [],
        "town": null
      }
    },
    {
      "type": "Feature",
      "geometry": {
        "type": "Point",
        "coordinates": [
          139.7561768,
          35.6737111
        ]
      },
      "properties": {
        "id": "019fa880-5cd5-729a-8d49-670ce25e8723",
        "name": "日比谷公園",
        "categoryIds": [
          "park"
        ],
        "tags": [],
        "town": null
      }
    },
    {
      "type": "Feature",
      "geometry": {
        "type": "Point",
        "coordinates": [
          139.7604959,
          35.6734305
        ]
      },
      "properties": {
        "id": "019fa880-5cd5-72a9-9547-c3e9269d9c90",
        "name": "TOHO CINEMAS CHANTER",
        "categoryIds": [
          "cinema"
        ],
        "tags": [],
        "town": null
      }
    },
    {
      "type": "Feature",
      "geometry": {
        "type": "Point",
        "coordinates": [
          139.7535705,
          35.6938859
        ]
      },
      "properties": {
        "id": "019fa880-5cd5-7455-9cf0-647f62f1d59c",
        "name": "千代田区立千代田図書館",
        "categoryIds": [
          "library"
        ],
        "tags": [],
        "town": null
      }
    },
    {
      "type": "Feature",
      "geometry": {
        "type": "Point",
        "coordinates": [
          139.7486134,
          35.6961359
        ]
      },
      "properties": {
        "id": "019fa880-5cd5-7459-a206-660bc9edd397",
        "name": "九段教会",
        "categoryIds": [
          "christian-church"
        ],
        "tags": [],
        "town": null
      }
    },
    {
      "type": "Feature",
      "geometry": {
        "type": "Point",
        "coordinates": [
          139.7348278,
          35.6905631
        ]
      },
      "properties": {
        "id": "019fa880-5cd5-74c2-836d-5e8b3347e719",
        "name": "外濠公園",
        "categoryIds": [
          "park"
        ],
        "tags": [],
        "town": null
      }
    },
    {
      "type": "Feature",
      "geometry": {
        "type": "Point",
        "coordinates": [
          139.7700608,
          35.7013313
        ]
      },
      "properties": {
        "id": "019fa880-5cd5-7537-802b-2421832099f4",
        "name": "千代田区立昌平まちかど図書館",
        "categoryIds": [
          "library"
        ],
        "tags": [],
        "town": null
      }
    },
    {
      "type": "Feature",
      "geometry": {
        "type": "Point",
        "coordinates": [
          139.7571878,
          35.686472
        ]
      },
      "properties": {
        "id": "019fa880-5cd5-7641-bc19-ad96baeb8230",
        "name": "皇居東御苑",
        "categoryIds": [
          "park"
        ],
        "tags": [],
        "town": null
      }
    },
    {
      "type": "Feature",
      "geometry": {
        "type": "Point",
        "coordinates": [
          139.7570462,
          35.6988082
        ]
      },
      "properties": {
        "id": "019fa880-5cd5-770e-b950-6cc7603de33e",
        "name": "日本大学経済学部図書館",
        "categoryIds": [
          "library"
        ],
        "tags": [],
        "town": null
      }
    },
    {
      "type": "Feature",
      "geometry": {
        "type": "Point",
        "coordinates": [
          139.7521747,
          35.6960477
        ]
      },
      "properties": {
        "id": "019fa880-5cd5-7740-a44a-9a4e3e81563b",
        "name": "千代田保健所",
        "categoryIds": [
          "social-welfare"
        ],
        "tags": [],
        "town": null
      }
    },
    {
      "type": "Feature",
      "geometry": {
        "type": "Point",
        "coordinates": [
          139.7626825,
          35.6751064
        ]
      },
      "properties": {
        "id": "019fa880-5cd5-7743-8b45-3ba7622c5083",
        "name": "角川シネマ有楽町",
        "categoryIds": [
          "cinema"
        ],
        "tags": [],
        "town": null
      }
    },
    {
      "type": "Feature",
      "geometry": {
        "type": "Point",
        "coordinates": [
          139.7481601,
          35.6753971
        ]
      },
      "properties": {
        "id": "019fa880-5cd5-775a-bbd0-62db8a21fec0",
        "name": "国会前庭",
        "categoryIds": [
          "park"
        ],
        "tags": [],
        "town": null
      }
    },
    {
      "type": "Feature",
      "geometry": {
        "type": "Point",
        "coordinates": [
          139.754641,
          35.671945
        ]
      },
      "properties": {
        "id": "019fa880-5cd5-77f0-ae81-1e52ac5633fa",
        "name": "千代田区立日比谷図書文化館",
        "categoryIds": [
          "library"
        ],
        "tags": [],
        "town": null
      }
    },
    {
      "type": "Feature",
      "geometry": {
        "type": "Point",
        "coordinates": [
          139.7650572,
          35.6981854
        ]
      },
      "properties": {
        "id": "019fa880-5cd5-781a-bcd1-ee19d7c897f9",
        "name": "日本ハリストス正教会修道院",
        "categoryIds": [
          "christian-church"
        ],
        "tags": [],
        "town": null
      }
    },
    {
      "type": "Feature",
      "geometry": {
        "type": "Point",
        "coordinates": [
          139.7608196,
          35.6950264
        ]
      },
      "properties": {
        "id": "019fa880-5cd5-7832-ae65-182a148bfa2f",
        "name": "神保町シアター",
        "categoryIds": [
          "cinema"
        ],
        "tags": [],
        "town": null
      }
    },
    {
      "type": "Feature",
      "geometry": {
        "type": "Point",
        "coordinates": [
          139.7703476,
          35.7013571
        ]
      },
      "properties": {
        "id": "019fa880-5cd5-7851-97e2-3eee063f342b",
        "name": "神田寺",
        "categoryIds": [
          "buddhist-temple"
        ],
        "tags": [],
        "town": null
      }
    },
    {
      "type": "Feature",
      "geometry": {
        "type": "Point",
        "coordinates": [
          139.7463035,
          35.6972222
        ]
      },
      "properties": {
        "id": "019fa880-5cd5-788b-86e8-0ac1e6c4811a",
        "name": "富士見みらい館",
        "categoryIds": [
          "social-welfare"
        ],
        "tags": [
          "kazaguruma.home-shortcut"
        ],
        "town": null
      }
    },
    {
      "type": "Feature",
      "geometry": {
        "type": "Point",
        "coordinates": [
          139.7683614,
          35.6929651
        ]
      },
      "properties": {
        "id": "019fa880-5cd5-78a9-9ebf-098c6c4cc4ed",
        "name": "千代田区立神田まちかど図書館",
        "categoryIds": [
          "library"
        ],
        "tags": [],
        "town": null
      }
    },
    {
      "type": "Feature",
      "geometry": {
        "type": "Point",
        "coordinates": [
          139.7449548,
          35.6859119
        ]
      },
      "properties": {
        "id": "019fa880-5cd5-79f3-8608-d5a71f5492f7",
        "name": "千鳥ヶ淵公園",
        "categoryIds": [
          "park"
        ],
        "tags": [],
        "town": null
      }
    },
    {
      "type": "Feature",
      "geometry": {
        "type": "Point",
        "coordinates": [
          139.7443644,
          35.6993741
        ]
      },
      "properties": {
        "id": "019fa880-5cd5-7a69-ace7-2a132f6f2b57",
        "name": "日本キリスト教団富士見町教会",
        "categoryIds": [
          "christian-church"
        ],
        "tags": [],
        "town": null
      }
    },
    {
      "type": "Feature",
      "geometry": {
        "type": "Point",
        "coordinates": [
          139.7679359,
          35.6929407
        ]
      },
      "properties": {
        "id": "019fa880-5cd5-7ae6-b7e1-8339b7cccb77",
        "name": "神田児童公園",
        "categoryIds": [
          "park"
        ],
        "tags": [],
        "town": null
      }
    },
    {
      "type": "Feature",
      "geometry": {
        "type": "Point",
        "coordinates": [
          139.7547057,
          35.6988874
        ]
      },
      "properties": {
        "id": "019fa880-5cd5-7b01-9dd8-2e4787f423aa",
        "name": "西神田コスモス館",
        "categoryIds": [
          "social-welfare"
        ],
        "tags": [
          "kazaguruma.home-shortcut"
        ],
        "town": null
      }
    },
    {
      "type": "Feature",
      "geometry": {
        "type": "Point",
        "coordinates": [
          139.7594538,
          35.6733194
        ]
      },
      "properties": {
        "id": "019fa880-5cd5-7b37-bb94-a2151c0cdef0",
        "name": "TOHO CINEMAS HIBIYA",
        "categoryIds": [
          "cinema"
        ],
        "tags": [],
        "town": null
      }
    },
    {
      "type": "Feature",
      "geometry": {
        "type": "Point",
        "coordinates": [
          139.742245,
          35.690322
        ]
      },
      "properties": {
        "id": "019fa880-5cd5-7b6f-882e-4d07aad02219",
        "name": "子育てひろば「あい・ぽーと」麹町",
        "categoryIds": [
          "social-welfare"
        ],
        "tags": [
          "kazaguruma.home-shortcut"
        ],
        "town": null
      }
    },
    {
      "type": "Feature",
      "geometry": {
        "type": "Point",
        "coordinates": [
          139.7580323,
          35.6951362
        ]
      },
      "properties": {
        "id": "019fa880-5cd5-7bae-838d-111510f35ee9",
        "name": "救世軍日本本営",
        "categoryIds": [
          "christian-church"
        ],
        "tags": [],
        "town": null
      }
    },
    {
      "type": "Feature",
      "geometry": {
        "type": "Point",
        "coordinates": [
          139.7331755,
          35.6857881
        ]
      },
      "properties": {
        "id": "019fa880-5cd5-7c84-9bcf-cac96174129f",
        "name": "心法寺",
        "categoryIds": [
          "buddhist-temple"
        ],
        "tags": [],
        "town": null
      }
    },
    {
      "type": "Feature",
      "geometry": {
        "type": "Point",
        "coordinates": [
          139.7591756,
          35.7009442
        ]
      },
      "properties": {
        "id": "019fa880-5cd5-7cf5-8a1f-da236422ebdb",
        "name": "㈶石川文化事業財団お茶の水図書館",
        "categoryIds": [
          "library"
        ],
        "tags": [],
        "town": null
      }
    },
    {
      "type": "Feature",
      "geometry": {
        "type": "Point",
        "coordinates": [
          139.7392841,
          35.6869902
        ]
      },
      "properties": {
        "id": "019fa880-5cd5-7d11-8560-3ac4e0486633",
        "name": "いきいきプラザ一番町",
        "categoryIds": [
          "social-welfare"
        ],
        "tags": [
          "kazaguruma.home-shortcut"
        ],
        "town": null
      }
    },
    {
      "type": "Feature",
      "geometry": {
        "type": "Point",
        "coordinates": [
          139.7575698,
          35.6994212
        ]
      },
      "properties": {
        "id": "019fa880-5cd5-7d22-aef4-68b4e1172660",
        "name": "カトリック神田教会",
        "categoryIds": [
          "christian-church"
        ],
        "tags": [],
        "town": null
      }
    },
    {
      "type": "Feature",
      "geometry": {
        "type": "Point",
        "coordinates": [
          139.778795,
          35.699229
        ]
      },
      "properties": {
        "id": "019fa880-5cd5-7d23-9c07-684d56afd77e",
        "name": "ちよだパークサイドプラザ",
        "categoryIds": [
          "social-welfare"
        ],
        "tags": [
          "kazaguruma.home-shortcut"
        ],
        "town": null
      }
    },
    {
      "type": "Feature",
      "geometry": {
        "type": "Point",
        "coordinates": [
          139.7437082,
          35.680241
        ]
      },
      "properties": {
        "id": "019fa880-5cd5-7d2b-abb0-d80f16d6a04a",
        "name": "最高裁判所図書館",
        "categoryIds": [
          "library"
        ],
        "tags": [],
        "town": null
      }
    },
    {
      "type": "Feature",
      "geometry": {
        "type": "Point",
        "coordinates": [
          139.777835,
          35.694232
        ]
      },
      "properties": {
        "id": "019fa880-5cd5-7d31-9979-79d32157427a",
        "name": "岩本町ほほえみプラザ",
        "categoryIds": [
          "social-welfare"
        ],
        "tags": [
          "kazaguruma.home-shortcut"
        ],
        "town": null
      }
    },
    {
      "type": "Feature",
      "geometry": {
        "type": "Point",
        "coordinates": [
          139.7605387,
          35.6977313
        ]
      },
      "properties": {
        "id": "019fa880-5cd5-7d9b-ae8f-d7d00901be5d",
        "name": "錦華公園",
        "categoryIds": [
          "park"
        ],
        "tags": [],
        "town": null
      }
    },
    {
      "type": "Feature",
      "geometry": {
        "type": "Point",
        "coordinates": [
          139.7594149,
          35.6730666
        ]
      },
      "properties": {
        "id": "019fa880-5cd5-7d9d-9713-970aa8443759",
        "name": "TOHO CINEMAS HIBIYA",
        "categoryIds": [
          "cinema"
        ],
        "tags": [],
        "town": null
      }
    },
    {
      "type": "Feature",
      "geometry": {
        "type": "Point",
        "coordinates": [
          139.7702913,
          35.7019158
        ]
      },
      "properties": {
        "id": "019fa880-5cd5-7dc7-8e68-e49750a54b8d",
        "name": "神田キリスト教会",
        "categoryIds": [
          "christian-church"
        ],
        "tags": [],
        "town": null
      }
    },
    {
      "type": "Feature",
      "geometry": {
        "type": "Point",
        "coordinates": [
          139.736548,
          35.688289
        ]
      },
      "properties": {
        "id": "019fa880-5cd5-7e0d-8300-8ab683bd0c1d",
        "name": "四番町児童館",
        "categoryIds": [
          "social-welfare"
        ],
        "tags": [
          "kazaguruma.home-shortcut"
        ],
        "town": null
      }
    },
    {
      "type": "Feature",
      "geometry": {
        "type": "Point",
        "coordinates": [
          139.7393327,
          35.6864514
        ]
      },
      "properties": {
        "id": "019fa880-5cd5-7e95-9ea4-e8808e845cd7",
        "name": "一番町児童館",
        "categoryIds": [
          "social-welfare"
        ],
        "tags": [
          "kazaguruma.home-shortcut"
        ],
        "town": null
      }
    },
    {
      "type": "Feature",
      "geometry": {
        "type": "Point",
        "coordinates": [
          139.7657773,
          35.6980586
        ]
      },
      "properties": {
        "id": "019fa880-5cd5-7ea9-839d-1c2d04dbff2f",
        "name": "ニコライ堂",
        "categoryIds": [
          "christian-church"
        ],
        "tags": [],
        "town": null
      }
    },
    {
      "type": "Feature",
      "geometry": {
        "type": "Point",
        "coordinates": [
          139.757157,
          35.6974277
        ]
      },
      "properties": {
        "id": "019fa880-5cd5-7eca-9f6d-ad4b35b2c069",
        "name": "みんなのお寺",
        "categoryIds": [
          "buddhist-temple"
        ],
        "tags": [],
        "town": null
      }
    },
    {
      "type": "Feature",
      "geometry": {
        "type": "Point",
        "coordinates": [
          139.7400815,
          35.6903895
        ]
      },
      "properties": {
        "id": "019fa880-5cd5-7ed6-a8bd-337ac263e5a0",
        "name": "東郷公園",
        "categoryIds": [
          "park"
        ],
        "tags": [],
        "town": null
      }
    },
    {
      "type": "Feature",
      "geometry": {
        "type": "Point",
        "coordinates": [
          139.74159,
          35.690444
        ]
      },
      "properties": {
        "id": "019fa880-5cd5-7f0e-8fed-c8f624933c61",
        "name": "千代田区立四番町図書館",
        "categoryIds": [
          "library"
        ],
        "tags": [],
        "town": null
      }
    },
    {
      "type": "Feature",
      "geometry": {
        "type": "Point",
        "coordinates": [
          139.7358866,
          35.6816756
        ]
      },
      "properties": {
        "id": "019fa880-5cd5-7f94-988c-a8ff8b532a55",
        "name": "清水谷公園",
        "categoryIds": [
          "park"
        ],
        "tags": [],
        "town": null
      }
    },
    {
      "type": "Feature",
      "geometry": {
        "type": "Point",
        "coordinates": [
          139.7509767,
          35.6921178
        ]
      },
      "properties": {
        "id": "019fa880-5cd5-7fb2-9df1-c9da871e3bfb",
        "name": "北の丸公園",
        "categoryIds": [
          "park"
        ],
        "tags": [],
        "town": null
      }
    },
    {
      "type": "Feature",
      "geometry": {
        "type": "Point",
        "coordinates": [
          139.7608409,
          35.700482
        ]
      },
      "properties": {
        "id": "019fa880-5cd5-7fce-b42f-51fa0dac8c01",
        "name": "お茶の水キリストの教会",
        "categoryIds": [
          "christian-church"
        ],
        "tags": [],
        "town": null
      }
    },
    {
      "type": "Feature",
      "geometry": {
        "type": "Point",
        "coordinates": [
          139.7433692,
          35.6953152
        ]
      },
      "properties": {
        "id": "019fa880-5cd6-7046-98c1-b22d2b96d8ad",
        "name": "遊就館",
        "categoryIds": [
          "museum"
        ],
        "tags": [],
        "town": null
      }
    },
    {
      "type": "Feature",
      "geometry": {
        "type": "Point",
        "coordinates": [
          139.764534,
          35.6800322
        ]
      },
      "properties": {
        "id": "019fa880-5cd6-7075-b7a1-ce1cd3e9a489",
        "name": "インターメディアテク",
        "categoryIds": [
          "museum"
        ],
        "tags": [],
        "town": null
      }
    },
    {
      "type": "Feature",
      "geometry": {
        "type": "Point",
        "coordinates": [
          139.7621517,
          35.6986987
        ]
      },
      "properties": {
        "id": "019fa880-5cd6-714a-900f-ff3693145790",
        "name": "明治大学博物館",
        "categoryIds": [
          "museum"
        ],
        "tags": [],
        "town": null
      }
    },
    {
      "type": "Feature",
      "geometry": {
        "type": "Point",
        "coordinates": [
          139.7698128,
          35.6974925
        ]
      },
      "properties": {
        "id": "019fa880-5cd6-7324-b3fe-943c71e289b7",
        "name": "JAPAN ART BRIDGE",
        "categoryIds": [
          "art-museum"
        ],
        "tags": [],
        "town": null
      }
    },
    {
      "type": "Feature",
      "geometry": {
        "type": "Point",
        "coordinates": [
          139.739749,
          35.689474
        ]
      },
      "properties": {
        "id": "019fa880-5cd6-7332-a1b5-cf97d281ba93",
        "name": "千代田区立四番町図書館",
        "categoryIds": [
          "museum"
        ],
        "tags": [],
        "town": null
      }
    },
    {
      "type": "Feature",
      "geometry": {
        "type": "Point",
        "coordinates": [
          139.7380742,
          35.683313
        ]
      },
      "properties": {
        "id": "019fa880-5cd6-7359-b619-432ecb07b975",
        "name": "発酵風呂ハッコラ",
        "categoryIds": [
          "public-bath"
        ],
        "tags": [],
        "town": null
      }
    },
    {
      "type": "Feature",
      "geometry": {
        "type": "Point",
        "coordinates": [
          139.7645151,
          35.6774598
        ]
      },
      "properties": {
        "id": "019fa880-5cd6-73ac-bcb9-6bb75bbf99fb",
        "name": "相田みつを美術館",
        "categoryIds": [
          "art-museum"
        ],
        "tags": [],
        "town": null
      }
    },
    {
      "type": "Feature",
      "geometry": {
        "type": "Point",
        "coordinates": [
          139.7428472,
          35.6860582
        ]
      },
      "properties": {
        "id": "019fa880-5cd6-740b-bbc1-283f644e1fc1",
        "name": "日本カメラ博物館",
        "categoryIds": [
          "museum"
        ],
        "tags": [],
        "town": null
      }
    },
    {
      "type": "Feature",
      "geometry": {
        "type": "Point",
        "coordinates": [
          139.7614042,
          35.6787799
        ]
      },
      "properties": {
        "id": "019fa880-5cd6-7424-81a1-5f4f7a58327a",
        "name": "静嘉堂美術館",
        "categoryIds": [
          "art-museum"
        ],
        "tags": [],
        "town": null
      }
    },
    {
      "type": "Feature",
      "geometry": {
        "type": "Point",
        "coordinates": [
          139.7509066,
          35.6951109
        ]
      },
      "properties": {
        "id": "019fa880-5cd6-74a3-b873-3fc0955ef99a",
        "name": "昭和館",
        "categoryIds": [
          "museum"
        ],
        "tags": [],
        "town": null
      }
    },
    {
      "type": "Feature",
      "geometry": {
        "type": "Point",
        "coordinates": [
          139.764043,
          35.694546
        ]
      },
      "properties": {
        "id": "019fa880-5cd6-74a8-9544-d37f0c4946c7",
        "name": "コミュニティアートスペース優美堂",
        "categoryIds": [
          "art-museum"
        ],
        "tags": [],
        "town": null
      }
    },
    {
      "type": "Feature",
      "geometry": {
        "type": "Point",
        "coordinates": [
          139.766472,
          35.682441
        ]
      },
      "properties": {
        "id": "019fa880-5cd6-75c3-b465-be5c4466401e",
        "name": "東京ステーションギャラリー",
        "categoryIds": [
          "art-museum"
        ],
        "tags": [],
        "town": null
      }
    },
    {
      "type": "Feature",
      "geometry": {
        "type": "Point",
        "coordinates": [
          139.7538782,
          35.6902601
        ]
      },
      "properties": {
        "id": "019fa880-5cd6-7627-9186-3eb6765242cb",
        "name": "国立公文書館",
        "categoryIds": [
          "museum"
        ],
        "tags": [],
        "town": null
      }
    },
    {
      "type": "Feature",
      "geometry": {
        "type": "Point",
        "coordinates": [
          139.7663029,
          35.6901388
        ]
      },
      "properties": {
        "id": "019fa880-5cd6-7640-8ec1-c2e6c99e5c26",
        "name": "稲荷湯",
        "categoryIds": [
          "public-bath"
        ],
        "tags": [],
        "town": null
      }
    },
    {
      "type": "Feature",
      "geometry": {
        "type": "Point",
        "coordinates": [
          139.7470123,
          35.678347
        ]
      },
      "properties": {
        "id": "019fa880-5cd6-77c9-917c-e02521540bac",
        "name": "憲政記念館",
        "categoryIds": [
          "museum"
        ],
        "tags": [],
        "town": null
      }
    },
    {
      "type": "Feature",
      "geometry": {
        "type": "Point",
        "coordinates": [
          139.7609079,
          35.6763721
        ]
      },
      "properties": {
        "id": "019fa880-5cd6-77ce-be2f-ed10dd5a6a9f",
        "name": "出光美術館",
        "categoryIds": [
          "art-museum"
        ],
        "tags": [],
        "town": null
      }
    },
    {
      "type": "Feature",
      "geometry": {
        "type": "Point",
        "coordinates": [
          139.74649,
          35.693263
        ]
      },
      "properties": {
        "id": "019fa880-5cd6-77e2-8d4b-1066f9ba07a8",
        "name": "千秋文庫博物館",
        "categoryIds": [
          "museum"
        ],
        "tags": [],
        "town": null
      }
    },
    {
      "type": "Feature",
      "geometry": {
        "type": "Point",
        "coordinates": [
          139.7522219,
          35.694969
        ]
      },
      "properties": {
        "id": "019fa880-5cd6-784f-b302-95fddf90b44f",
        "name": "しょうけい館",
        "categoryIds": [
          "museum"
        ],
        "tags": [],
        "town": null
      }
    },
    {
      "type": "Feature",
      "geometry": {
        "type": "Point",
        "coordinates": [
          139.764418,
          35.691776
        ]
      },
      "properties": {
        "id": "019fa880-5cd6-78af-b9de-08beeb78d708",
        "name": "天理ギャラリー",
        "categoryIds": [
          "art-museum"
        ],
        "tags": [],
        "town": null
      }
    },
    {
      "type": "Feature",
      "geometry": {
        "type": "Point",
        "coordinates": [
          139.7755499,
          35.6927651
        ]
      },
      "properties": {
        "id": "019fa880-5cd6-78d5-8f0d-d2b980c78320",
        "name": "於玉湯",
        "categoryIds": [
          "public-bath"
        ],
        "tags": [],
        "town": null
      }
    },
    {
      "type": "Feature",
      "geometry": {
        "type": "Point",
        "coordinates": [
          139.7530799,
          35.6915625
        ]
      },
      "properties": {
        "id": "019fa880-5cd6-79dd-aaf4-367c7aee85f3",
        "name": "科学技術館",
        "categoryIds": [
          "museum"
        ],
        "tags": [],
        "town": null
      }
    },
    {
      "type": "Feature",
      "geometry": {
        "type": "Point",
        "coordinates": [
          139.7678448,
          35.7022569
        ]
      },
      "properties": {
        "id": "019fa880-5cd6-7a79-a32a-7399951b7539",
        "name": "神田明神資料館",
        "categoryIds": [
          "museum"
        ],
        "tags": [],
        "town": null
      }
    },
    {
      "type": "Feature",
      "geometry": {
        "type": "Point",
        "coordinates": [
          139.7592409,
          35.6865243
        ]
      },
      "properties": {
        "id": "019fa880-5cd6-7aba-bca8-0e770da6c6f9",
        "name": "宮内庁 三の丸尚蔵館",
        "categoryIds": [
          "art-museum"
        ],
        "tags": [],
        "town": null
      }
    },
    {
      "type": "Feature",
      "geometry": {
        "type": "Point",
        "coordinates": [
          139.7645456,
          35.6885516
        ]
      },
      "properties": {
        "id": "019fa880-5cd6-7c1f-8c9c-a227390405ea",
        "name": "SPA大手町",
        "categoryIds": [
          "public-bath"
        ],
        "tags": [],
        "town": null
      }
    },
    {
      "type": "Feature",
      "geometry": {
        "type": "Point",
        "coordinates": [
          139.7546203,
          35.6904946
        ]
      },
      "properties": {
        "id": "019fa880-5cd6-7c6d-8b56-2be683d649a6",
        "name": "東京国立近代美術館",
        "categoryIds": [
          "art-museum"
        ],
        "tags": [],
        "town": null
      }
    },
    {
      "type": "Feature",
      "geometry": {
        "type": "Point",
        "coordinates": [
          139.7597075,
          35.6952821
        ]
      },
      "properties": {
        "id": "019fa880-5cd6-7d38-b17b-55a1378dd9b8",
        "name": "Gallery Hinoki",
        "categoryIds": [
          "art-museum"
        ],
        "tags": [],
        "town": null
      }
    },
    {
      "type": "Feature",
      "geometry": {
        "type": "Point",
        "coordinates": [
          139.7552918,
          35.6966741
        ]
      },
      "properties": {
        "id": "019fa880-5cd6-7d49-888d-1ba85637e081",
        "name": "梅の湯",
        "categoryIds": [
          "public-bath"
        ],
        "tags": [],
        "town": null
      }
    },
    {
      "type": "Feature",
      "geometry": {
        "type": "Point",
        "coordinates": [
          139.7596592,
          35.6906801
        ]
      },
      "properties": {
        "id": "019fa880-5cd6-7d71-bbb5-e795c2abccc6",
        "name": "丸紅ギャラリー",
        "categoryIds": [
          "art-museum"
        ],
        "tags": [],
        "town": null
      }
    },
    {
      "type": "Feature",
      "geometry": {
        "type": "Point",
        "coordinates": [
          139.7679137,
          35.6981356
        ]
      },
      "properties": {
        "id": "019fa880-5cd6-7d72-ac6c-89e27c90a921",
        "name": "RAKU SPA 1010 神田",
        "categoryIds": [
          "public-bath"
        ],
        "tags": [],
        "town": null
      }
    },
    {
      "type": "Feature",
      "geometry": {
        "type": "Point",
        "coordinates": [
          139.763169,
          35.6784739
        ]
      },
      "properties": {
        "id": "019fa880-5cd6-7e0b-9d3a-218e8214e31d",
        "name": "三菱一号館",
        "categoryIds": [
          "art-museum"
        ],
        "tags": [],
        "town": null
      }
    }
  ]
}
